GLOBALSTAR M045 [-]     
1 25676U 99019A   24089.85399519 -.00000046  00000+0  41958-3 0  9996
2 25676  51.9952 131.6827 0000708  96.5963  73.3059 12.27034456138845
GLOBALSTAR M019 [-]     
1 25677U 99019B   24089.88364675  .00000004  00000+0  97593-3 0  9994
2 25677  51.9867 230.7056 0001800 129.5120  40.7039 12.13854714131180
GLOBALSTAR M044 [-]     
1 25678U 99019C   24089.93513123 -.00000073  00000+0  15414-3 0  9994
2 25678  51.9947 126.3459 0006125 261.2065 168.4262 11.90230163118422
GLOBALSTAR M042 [-]     
1 25679U 99019D   24089.68644628 -.00000033  00000+0  56032-3 0  9999
2 25679  52.0000 225.7638 0003764 105.0022 268.4716 12.22058537130914
GLOBALSTAR M025 [-]     
1 25770U 99031A   24089.81815794 -.00000069  00000+0 -58802-4 0  9992
2 25770  51.9788 108.6765 0001550 130.3110  41.0448 11.22549917431802
GLOBALSTAR M047 [-]     
1 25772U 99031C   24089.87206557 -.00000036  00000+0  93082-3 0  9992
2 25772  51.9817 160.4059 0016603 218.4176 141.5448 11.31919694420799
GLOBALSTAR M052 [-]     
1 25773U 99031D   24089.88659973  .00000000  00000+0  22183-2 0  9991
2 25773  51.9849 235.8770 0003326 147.5929  23.5401 11.15049903428940
